{
  "type": "FeatureCollection",
  "features": [
    {
      "type": "Feature",
      "properties": {
        "norad_id": 34468,
        "name": "COSMOS 2251 DEB",
        "group": "cosmos-2251-debris",
        "lat": 17.152768891081,
        "lon": 100.58029475210036,
        "alt_km": 774.7971348000838,
        "timestamp": "2025-12-24T07:45:06.593201+00:00",
        "meta_object_name": "COSMOS 2251 DEB",
        "meta_object_id": "1993-036TM",
        "meta_epoch": "2025-12-23T16:44:30.980256",
        "meta_mean_motion": 14.47652703,
        "meta_eccentricity": 0.00762742,
        "meta_inclination": 74.0131,
        "meta_ra_of_asc_node": 96.6751,
        "meta_arg_of_pericenter": 239.3893,
        "meta_mean_anomaly": 119.9729,
        "meta_ephemeris_type": 0,
        "meta_classification_type": "U",
        "meta_norad_cat_id": 34468,
        "meta_element_set_no": 999,
        "meta_rev_at_epoch": 88620,
        "meta_bstar": 0.00032866683,
        "meta_mean_motion_dot": 1.227e-05,
        "meta_mean_motion_ddot": 0,
        "tle_line1": "1 34468U 93036TM  25357.69758079  .00001227  00000+0  32867-3 0  9999",
        "tle_line2": "2 34468  74.0131  96.6751 0076274 239.3893 119.9729 14.47652703886201"
      },
      "geometry": {
        "type": "Point",
        "coordinates": [
          100.58029475210036,
          17.152768891081
        ]
      }
    },
    {
      "type": "Feature",
      "properties": {
        "norad_id": 34472,
        "name": "COSMOS 2251 DEB",
        "group": "cosmos-2251-debris",
        "lat": 55.223425796391446,
        "lon": 103.3551710991135,
        "alt_km": 1197.466205297149,
        "timestamp": "2025-12-24T07:45:06.593212+00:00",
        "meta_object_name": "COSMOS 2251 DEB",
        "meta_object_id": "1993-036TR",
        "meta_epoch": "2025-12-23T15:40:46.435008",
        "meta_mean_motion": 13.70348923,
        "meta_eccentricity": 0.03277595,
        "meta_inclination": 74.0847,
        "meta_ra_of_asc_node": 80.196,
        "meta_arg_of_pericenter": 208.8312,
        "meta_mean_anomaly": 149.435,
        "meta_ephemeris_type": 0,
        "meta_classification_type": "U",
        "meta_norad_cat_id": 34472,
        "meta_element_set_no": 999,
        "meta_rev_at_epoch": 83876,
        "meta_bstar": 0.00065084955,
        "meta_mean_motion_dot": 8.17e-06,
        "meta_mean_motion_ddot": 0,
        "tle_line1": "1 34472U 93036TR  25357.65331522  .00000817  00000+0  65085-3 0  9992",
        "tle_line2": "2 34472  74.0847  80.1960 0327759 208.8312 149.4350 13.70348923838761"
      },
      "geometry": {
        "type": "Point",
        "coordinates": [
          103.3551710991135,
          55.223425796391446
        ]
      }
    },
    {
      "type": "Feature",
      "properties": {
        "norad_id": 34474,
        "name": "COSMOS 2251 DEB",
        "group": "cosmos-2251-debris",
        "lat": -69.85229027368774,
        "lon": 177.03021524463716,
        "alt_km": 947.2931235457154,
        "timestamp": "2025-12-24T07:45:06.593222+00:00",
        "meta_object_name": "COSMOS 2251 DEB",
        "meta_object_id": "1993-036TT",
        "meta_epoch": "2025-12-23T14:16:22.202688",
        "meta_mean_motion": 14.06499496,
        "meta_eccentricity": 0.01992919,
        "meta_inclination": 74.0793,
        "meta_ra_of_asc_node": 307.227,
        "meta_arg_of_pericenter": 18.4501,
        "meta_mean_anomaly": 154.8344,
        "meta_ephemeris_type": 0,
        "meta_classification_type": "U",
        "meta_norad_cat_id": 34474,
        "meta_element_set_no": 999,
        "meta_rev_at_epoch": 85661,
        "meta_bstar": 0.0024860737,
        "meta_mean_motion_dot": 4.903e-05,
        "meta_mean_motion_ddot": 0,
        "tle_line1": "1 34474U 93036TT  25357.59470142  .00004903  00000+0  24861-2 0  9995",
        "tle_line2": "2 34474  74.0793 307.2270 0199291  18.4501 154.8344 14.06499496856612"
      },
      "geometry": {
        "type": "Point",
        "coordinates": [
          177.03021524463716,
          -69.85229027368774
        ]
      }
    },
    {
      "type": "Feature",
      "properties": {
        "norad_id": 34476,
        "name": "COSMOS 2251 DEB",
        "group": "cosmos-2251-debris",
        "lat": -59.01755519185643,
        "lon": 34.447064484440325,
        "alt_km": 736.161016801364,
        "timestamp": "2025-12-24T07:45:06.593232+00:00",
        "meta_object_name": "COSMOS 2251 DEB",
        "meta_object_id": "1993-036TV",
        "meta_epoch": "2025-12-23T04:15:02.567520",
        "meta_mean_motion": 13.82132648,
        "meta_eccentricity": 0.03222242,
        "meta_inclination": 74.0063,
        "meta_ra_of_asc_node": 64.9101,
        "meta_arg_of_pericenter": 282.3311,
        "meta_mean_anomaly": 74.192,
        "meta_ephemeris_type": 0,
        "meta_classification_type": "U",
        "meta_norad_cat_id": 34476,
        "meta_element_set_no": 999,
        "meta_rev_at_epoch": 83782,
        "meta_bstar": 0.0037798313,
        "meta_mean_motion_dot": 6.03e-05,
        "meta_mean_motion_ddot": 0,
        "tle_line1": "1 34476U 93036TV  25357.17711305  .00006030  00000+0  37798-2 0  9996",
        "tle_line2": "2 34476  74.0063  64.9101 0322224 282.3311  74.1920 13.82132648837821"
      },
      "geometry": {
        "type": "Point",
        "coordinates": [
          34.447064484440325,
          -59.01755519185643
        ]
      }
    },
    {
      "type": "Feature",
      "properties": {
        "norad_id": 34477,
        "name": "COSMOS 2251 DEB",
        "group": "cosmos-2251-debris",
        "lat": 62.27390746840985,
        "lon": 80.5687206116001,
        "alt_km": 749.1770941839577,
        "timestamp": "2025-12-24T07:45:06.593242+00:00",
        "meta_object_name": "COSMOS 2251 DEB",
        "meta_object_id": "1993-036TW",
        "meta_epoch": "2025-12-23T21:48:05.340960",
        "meta_mean_motion": 14.56937216,
        "meta_eccentricity": 0.00767167,
        "meta_inclination": 73.9783,
        "meta_ra_of_asc_node": 48.2172,
        "meta_arg_of_pericenter": 233.3063,
        "meta_mean_anomaly": 180.3626,
        "meta_ephemeris_type": 0,
        "meta_classification_type": "U",
        "meta_norad_cat_id": 34477,
        "meta_element_set_no": 999,
        "meta_rev_at_epoch": 88788,
        "meta_bstar": 0.00075954612,
        "meta_mean_motion_dot": 3.52e-05,
        "meta_mean_motion_ddot": 0,
        "tle_line1": "1 34477U 93036TW  25357.90839515  .00003520  00000+0  75955-3 0  9991",
        "tle_line2": "2 34477  73.9783  48.2172 0076716 233.3063 180.3626 14.56937216887884"
      },
      "geometry": {
        "type": "Point",
        "coordinates": [
          80.5687206116001,
          62.27390746840985
        ]
      }
    },
    {
      "type": "Feature",
      "properties": {
        "norad_id": 34478,
        "name": "COSMOS 2251 DEB",
        "group": "cosmos-2251-debris",
        "lat": -61.51302269973765,
        "lon": -48.7861674168686,
        "alt_km": 547.4629955757337,
        "timestamp": "2025-12-24T07:45:06.593253+00:00",
        "meta_object_name": "COSMOS 2251 DEB",
        "meta_object_id": "1993-036TX",
        "meta_epoch": "2025-12-23T17:58:35.156064",
        "meta_mean_motion": 15.08914731,
        "meta_eccentricity": 0.00336981,
        "meta_inclination": 74.0416,
        "meta_ra_of_asc_node": 344.2204,
        "meta_arg_of_pericenter": 201.8966,
        "meta_mean_anomaly": 215.0748,
        "meta_ephemeris_type": 0,
        "meta_classification_type": "U",
        "meta_norad_cat_id": 34478,
        "meta_element_set_no": 999,
        "meta_rev_at_epoch": 89139,
        "meta_bstar": 0.0030597457,
        "meta_mean_motion_dot": 0.00049206,
        "meta_mean_motion_ddot": 0,
        "tle_line1": "1 34478U 93036TX  25357.74901801  .00049206  00000+0  30597-2 0  9995",
        "tle_line2": "2 34478  74.0416 344.2204 0033698 201.8966 215.0748 15.08914731891396"
      },
      "geometry": {
        "type": "Point",
        "coordinates": [
          -48.7861674168686,
          -61.51302269973765
        ]
      }
    },
    {
      "type": "Feature",
      "properties": {
        "norad_id": 34481,
        "name": "COSMOS 2251 DEB",
        "group": "cosmos-2251-debris",
        "lat": -31.192331261308254,
        "lon": 22.216658565906688,
        "alt_km": 815.9791921419728,
        "timestamp": "2025-12-24T07:45:06.593263+00:00",
        "meta_object_name": "COSMOS 2251 DEB",
        "meta_object_id": "1993-036UA",
        "meta_epoch": "2025-12-23T22:09:25.895232",
        "meta_mean_motion": 14.32588849,
        "meta_eccentricity": 0.00702856,
        "meta_inclination": 73.979,
        "meta_ra_of_asc_node": 32.9669,
        "meta_arg_of_pericenter": 205.2238,
        "meta_mean_anomaly": 220.6414,
        "meta_ephemeris_type": 0,
        "meta_classification_type": "U",
        "meta_norad_cat_id": 34481,
        "meta_element_set_no": 999,
        "meta_rev_at_epoch": 87609,
        "meta_bstar": 0.00057332643,
        "meta_mean_motion_dot": 1.573e-05,
        "meta_mean_motion_ddot": 0,
        "tle_line1": "1 34481U 93036UA  25357.92321638  .00001573  00000+0  57333-3 0  9996",
        "tle_line2": "2 34481  73.9790  32.9669 0070285 205.2238 220.6414 14.32588849876097"
      },
      "geometry": {
        "type": "Point",
        "coordinates": [
          22.216658565906688,
          -31.192331261308254
        ]
      }
    }
  ]
}